NORAD_CAT_ID,OBJECT_NAME,OBJECT_TYPE,EPOCH,MEAN_MOTION,ECCENTRICITY,INCLINATION,RA_OF_ASC_NODE,ARG_OF_PERICENTER,MEAN_ANOMALY,BSTAR,MEAN_MOTION_DOT,MEAN_MOTION_DDOT,TLE_LINE0,TLE_LINE1,TLE_LINE2,SEMIMAJOR_AXIS,PERIOD,APOGEE,PERIGEE,DECAYED
50202.0,STARLINK-3256,PAYLOAD,2023-12-20 01:49:29,15.08856427,0.0001567,53.2181,278.1097,103.3541,256.7626,5.2534e-05,5.49e-06,0.0,0 STARLINK-3256,1 50202U 21125AY  23354.07604162  .00000549  00000-0  52534-4 0  9994,2 50202  53.2181 278.1097 0001567 103.3541 256.7626 15.08856427113871,6917.83,95.437,540.779,538.611,0.0
50202.0,STARLINK-3256,PAYLOAD,2023-12-20 22:29:31,15.08842373,0.000155,53.2185,274.2418,112.8499,247.2657,0.00012907,1.767e-05,0.0,0 STARLINK-3256,1 50202U 21125AY  23354.93716919  .00001767  00000-0  12907-3 0  9995,2 50202  53.2185 274.2418 0001550 112.8499 247.2657 15.08842373114480,6917.873,95.437,540.81,538.666,0.0
50202.0,STARLINK-3256,PAYLOAD,2023-12-21 01:40:17,15.08847529,0.0001488,53.2187,273.6449,106.9731,253.1424,0.00017144,2.442e-05,0.0,0 STARLINK-3256,1 50202U 21125AY  23355.06964433  .00002442  00000-0  17144-3 0  9995,2 50202  53.2187 273.6449 0001488 106.9731 253.1424 15.08847529114028,6917.857,95.437,540.752,538.693,0.0
50202.0,STARLINK-3256,PAYLOAD,2023-12-21 22:20:19,15.0883581,0.0001496,53.2186,269.7836,103.6007,256.5152,-2.3572e-05,-6.63e-06,0.0,0 STARLINK-3256,1 50202U 21125AY  23355.93078038 -.00000663  00000-0 -23572-4 0  9996,2 50202  53.2186 269.7836 0001496 103.6007 256.5152 15.08835810114634,6917.893,95.438,540.793,538.723,0.0
50202.0,STARLINK-3256,PAYLOAD,2023-12-21 23:55:42,15.08837171,0.000161,53.2183,269.486,108.331,251.7857,-1.4726e-05,-5.22e-06,0.0,0 STARLINK-3256,1 50202U 21125AY  23355.99701909 -.00000522  00000-0 -14726-4 0  9997,2 50202  53.2183 269.4860 0001610 108.3310 251.7857 15.08837171114161,6917.889,95.438,540.868,538.64,0.0
50202.0,STARLINK-3256,PAYLOAD,2023-12-22 22:11:06,15.08845034,0.0001675,53.2181,265.3247,120.0011,240.1147,-3.5181e-05,-8.48e-06,0.0,0 STARLINK-3256,1 50202U 21125AY  23356.92437596 -.00000848  00000-0 -35181-4 0  9998,2 50202  53.2181 265.3247 0001675 120.0011 240.1147 15.08845034114782,6917.865,95.437,540.889,538.571,0.0
50202.0,STARLINK-3256,PAYLOAD,2023-12-22 23:46:29,15.08847405,0.0001439,53.217,265.0241,106.5892,253.5258,-1.4889e-05,-5.25e-06,0.0,0 STARLINK-3256,1 50202U 21125AY  23356.99061425 -.00000525  00000-0 -14889-4 0  9993,2 50202  53.2170 265.0241 0001439 106.5892 253.5258 15.08847405114319,6917.858,95.437,540.718,538.727,0.0
50202.0,STARLINK-3256,PAYLOAD,2023-12-23 17:15:43,15.0883711,0.0001531,53.2159,261.7532,112.6553,247.4601,9.5595e-05,1.234e-05,0.0,0 STARLINK-3256,1 50202U 21125AY  23357.71925827  .00001234  00000-0  95595-4 0  9998,2 50202  53.2159 261.7532 0001531 112.6553 247.4601 15.08837110114425,6917.889,95.438,540.813,538.695,0.0
50202.0,STARLINK-3256,PAYLOAD,2023-12-23 22:01:53,15.08837142,0.0001539,53.2159,260.8606,113.4181,246.6973,8.667e-05,1.092e-05,0.0,0 STARLINK-3256,1 50202U 21125AY  23357.91797874  .00001092  00000-0  86670-4 0  9995,2 50202  53.2159 260.8606 0001539 113.4181 246.6973 15.08837142114935,6917.889,95.438,540.819,538.689,0.0
50202.0,STARLINK-3256,PAYLOAD,2023-12-24 01:12:40,15.08810043,0.0001658,53.217,260.2672,69.3168,290.8001,0.00056561,8.718e-05,0.0,0 STARLINK-3256,1 50202U 21125AY  23358.05047008  .00008718  00000-0  56561-3 0  9995,2 50202  53.2170 260.2672 0001658  69.3168 290.8001 15.08810043114474,6917.972,95.439,540.984,538.69,0.0
50202.0,STARLINK-3256,PAYLOAD,2023-12-24 17:06:31,15.08841752,0.0001566,53.2166,257.2984,67.2952,292.8206,8.9596e-05,1.138e-05,0.0,0 STARLINK-3256,1 50202U 21125AY  23358.71286221  .00001138  00000-0  89596-4 0  9994,2 50202  53.2166 257.2984 0001566  67.2952 292.8206 15.08841752114578,6917.875,95.437,540.823,538.657,0.0
50202.0,STARLINK-3256,PAYLOAD,2023-12-24 21:52:40,15.08844175,0.0001598,53.2165,256.4068,62.7576,297.3579,9.0277e-05,1.149e-05,0.0,0 STARLINK-3256,1 50202U 21125AY  23358.91158079  .00001149  00000-0  90277-4 0  9995,2 50202  53.2165 256.4068 0001598  62.7576 297.3579 15.08844175115080,6917.868,95.437,540.838,538.627,0.0
50202.0,STARLINK-3256,PAYLOAD,2023-12-25 02:38:48,15.08855398,0.0001412,53.2167,255.5082,114.2968,245.8172,0.00021745,3.176e-05,0.0,0 STARLINK-3256,1 50202U 21125AY  23359.11028728  .00003176  00000-0  21745-3 0  9990,2 50202  53.2167 255.5082 0001412 114.2968 245.8172 15.08855398114637,6917.833,95.437,540.675,538.722,0.0
50202.0,STARLINK-3256,PAYLOAD,2023-12-25 21:43:28,15.0883598,0.0001372,53.2168,251.9422,78.3096,281.805,5.3253e-05,5.6e-06,0.0,0 STARLINK-3256,1 50202U 21125AY  23359.90518558  .00000560  00000-0  53253-4 0  9996,2 50202  53.2168 251.9422 0001372  78.3096 281.8050 15.08835980115230,6917.893,95.438,540.707,538.809,0.0
50202.0,STARLINK-3256,PAYLOAD,2023-12-26 02:29:36,15.0884399,0.0001371,53.2161,251.0489,91.2639,268.8511,0.00011055,1.472e-05,0.0,0 STARLINK-3256,1 50202U 21125AY  23360.10389865  .00001472  00000-0  11055-3 0  9993,2 50202  53.2161 251.0489 0001371  91.2639 268.8511 15.08843990114789,6917.868,95.437,540.682,538.785,0.0
50202.0,STARLINK-3256,PAYLOAD,2023-12-26 21:34:14,15.08845991,0.0001453,53.2163,247.477,106.6292,253.486,-1.0447e-05,-4.54e-06,0.0,0 STARLINK-3256,1 50202U 21125AY  23360.89877853 -.00000454  00000-0 -10447-4 0  9994,2 50202  53.2163 247.4770 0001453 106.6292 253.4860 15.08845991115387,6917.862,95.437,540.732,538.722,0.0
50202.0,STARLINK-3256,PAYLOAD,2023-12-27 02:20:23,15.08847423,0.0001634,53.2165,246.5838,113.1288,246.9876,3.9417e-05,3.39e-06,0.0,0 STARLINK-3256,1 50202U 21125AY  23361.09749733  .00000339  00000-0  39417-4 0  9990,2 50202  53.2165 246.5838 0001634 113.1288 246.9876 15.08847423115413,6917.858,95.437,540.853,538.592,0.0
50202.0,STARLINK-3256,PAYLOAD,2023-12-27 19:49:38,15.08844635,0.0001668,53.2165,243.3142,107.8597,252.2577,0.00011771,1.586e-05,0.0,0 STARLINK-3256,1 50202U 21125AY  23361.82613966  .00001586  00000-0  11771-3 0  9996,2 50202  53.2165 243.3142 0001668 107.8597 252.2577 15.08844635115045,6917.866,95.437,540.885,538.577,0.0
50202.0,STARLINK-3256,PAYLOAD,2023-12-27 21:25:01,15.08844223,0.0001608,53.2174,243.0166,105.755,254.362,9.0968e-05,1.16e-05,0.0,0 STARLINK-3256,1 50202U 21125AY  23361.89237863  .00001160  00000-0  90968-4 0  9995,2 50202  53.2174 243.0166 0001608 105.7550 254.3620 15.08844223115537,6917.867,95.437,540.845,538.62,0.0
50202.0,STARLINK-3256,PAYLOAD,2023-12-28 02:11:10,15.0884355,0.000146,53.217,242.125,103.8362,256.2792,7.8994e-05,9.7e-06,0.0,0 STARLINK-3256,1 50202U 21125AY  23362.09109865  .00000970  00000-0  78994-4 0  9991,2 50202  53.2170 242.1250 0001460 103.8362 256.2792 15.08843550115569,6917.87,95.437,540.745,538.725,0.0
50202.0,STARLINK-3256,PAYLOAD,2023-12-28 19:40:26,15.08834417,0.0001747,53.2163,238.8485,123.2783,236.8377,-6.2764e-05,-1.287e-05,0.0,0 STARLINK-3256,1 50202U 21125AY  23362.81975067 -.00001287  00000-0 -62764-4 0  9998,2 50202  53.2163 238.8485 0001747 123.2783 236.8377 15.08834417115198,6917.897,95.438,540.971,538.554,0.0
50202.0,STARLINK-3256,PAYLOAD,2023-12-28 21:15:49,15.08833834,0.0001597,53.2166,238.5507,118.8675,241.2478,-6.8599e-05,-1.379e-05,0.0,0 STARLINK-3256,1 50202U 21125AY  23362.88599155 -.00001379  00000-0 -68599-4 0  9999,2 50202  53.2166 238.5507 0001597 118.8675 241.2478 15.08833834115684,6917.899,95.438,540.869,538.659,0.0
50202.0,STARLINK-3256,PAYLOAD,2023-12-29 02:01:59,15.08827602,0.0001546,53.217,237.6638,100.2819,259.8347,-5.0333e-05,-1.089e-05,0.0,0 STARLINK-3256,1 50202U 21125AY  23363.08471748 -.00001089  00000-0 -50333-4 0  9994,2 50202  53.2170 237.6638 0001546 100.2819 259.8347 15.08827602115230,6917.918,95.438,540.853,538.714,0.0
50202.0,STARLINK-3256,PAYLOAD,2023-12-29 19:31:13,15.08843338,0.0001246,53.2164,234.3968,87.787,272.3264,0.00011039,1.47e-05,0.0,0 STARLINK-3256,1 50202U 21125AY  23363.81334604  .00001470  00000-0  11039-3 0  9995,2 50202  53.2164 234.3968 0001246  87.7870 272.3264 15.08843338115340,6917.87,95.437,540.597,538.873,0.0
50202.0,STARLINK-3256,PAYLOAD,2023-12-29 21:06:36,15.08845063,0.0001255,53.2162,234.0994,89.6776,270.436,0.00013631,1.882e-05,0.0,0 STARLINK-3256,1 50202U 21125AY  23363.87958459  .00001882  00000-0  13631-3 0  9998,2 50202  53.2162 234.0994 0001255  89.6776 270.4360 15.08845063115837,6917.865,95.437,540.598,538.862,0.0
50202.0,STARLINK-3256,PAYLOAD,2023-12-30 19:22:00,15.08841729,0.0001169,53.2155,229.9388,90.4905,269.6221,0.00015139,2.122e-05,0.0,0 STARLINK-3256,1 50202U 21125AY  23364.80694949  .00002122  00000-0  15139-3 0  9996,2 50202  53.2155 229.9388 0001169  90.4905 269.6221 15.08841729115490,6917.875,95.437,540.549,538.931,0.0
50202.0,STARLINK-3256,PAYLOAD,2023-12-30 22:32:46,15.08840405,0.000118,53.2153,229.344,92.8673,267.2454,0.00013761,1.903e-05,0.0,0 STARLINK-3256,1 50202U 21125AY  23364.93942999  .00001903  00000-0  13761-3 0  9996,2 50202  53.2153 229.3440 0001180  92.8673 267.2454 15.08840405115999,6917.879,95.438,540.56,538.928,0.0
50202.0,STARLINK-3256,PAYLOAD,2023-12-31 22:23:33,15.08845807,0.0001363,53.2158,224.8814,88.8656,271.2492,4.2324e-05,3.86e-06,0.0,0 STARLINK-3256,1 50202U 21125AY  23365.93302677  .00000386  00000-0  42324-4 0  9992,2 50202  53.2158 224.8814 0001363  88.8656 271.2492 15.08845807116144,6917.863,95.437,540.671,538.785,0.0
50202.0,STARLINK-3256,PAYLOAD,2024-01-01 19:03:34,15.08840171,0.0001458,53.2161,221.0151,87.3313,272.7846,4.5482e-05,4.36e-06,0.0,0 STARLINK-3256,1 50202U 21125AY  24001.79414914  .00000436  00000-0  45482-4 0  9996,2 50202  53.2161 221.0151 0001458  87.3313 272.7846 15.08840171115798,6917.88,95.438,540.753,538.736,0.0
50202.0,STARLINK-3256,PAYLOAD,2024-01-01 22:14:20,15.08842707,0.0001488,53.2161,220.4207,84.6948,275.4213,6.4848e-05,7.44e-06,0.0,0 STARLINK-3256,1 50202U 21125AY  24001.92662708  .00000744  00000-0  64848-4 0  9996,2 50202  53.2161 220.4207 0001488  84.6948 275.4213 15.08842707116291,6917.872,95.437,540.766,538.708,0.0
